{
  "type": "FeatureCollection",
  "features": [
    {
      "type": "Feature",
      "properties": {
        "norad_id": 34478,
        "name": "COSMOS 2251 DEB",
        "group": "cosmos-2251-debris",
        "lat": 73.27804162529135,
        "lon": 98.23169940112167,
        "alt_km": 563.3501600328091,
        "timestamp": "2025-12-03T10:52:57.850725+00:00",
        "meta_object_name": "COSMOS 2251 DEB",
        "meta_object_id": "1993-036TX",
        "meta_epoch": "2025-12-02T22:00:21.946752",
        "meta_mean_motion": 15.06733799,
        "meta_eccentricity": 0.0037159,
        "meta_inclination": 74.0424,
        "meta_ra_of_asc_node": 27.0755,
        "meta_arg_of_pericenter": 250.3779,
        "meta_mean_anomaly": 165.6549,
        "meta_ephemeris_type": 0,
        "meta_classification_type": "U",
        "meta_norad_cat_id": 34478,
        "meta_element_set_no": 999,
        "meta_rev_at_epoch": 88825,
        "meta_bstar": 0.0038888,
        "meta_mean_motion_dot": 0.0005918,
        "meta_mean_motion_ddot": 0,
        "tle_line1": "1 34478U 93036TX  25336.91692068  .00059180  00000+0  38888-2 0  9996",
        "tle_line2": "2 34478  74.0424  27.0755 0037159 250.3779 165.6549 15.06733799888250"
      },
      "geometry": {
        "type": "Point",
        "coordinates": [
          98.23169940112167,
          73.27804162529135
        ]
      }
    },
    {
      "type": "Feature",
      "properties": {
        "norad_id": 34481,
        "name": "COSMOS 2251 DEB",
        "group": "cosmos-2251-debris",
        "lat": 21.34927865007527,
        "lon": 76.91725622934156,
        "alt_km": 819.2413699289091,
        "timestamp": "2025-12-03T10:52:57.850736+00:00",
        "meta_object_name": "COSMOS 2251 DEB",
        "meta_object_id": "1993-036UA",
        "meta_epoch": "2025-12-02T08:13:58.755360",
        "meta_mean_motion": 14.32481954,
        "meta_eccentricity": 0.00709768,
        "meta_inclination": 73.9803,
        "meta_ra_of_asc_node": 72.5025,
        "meta_arg_of_pericenter": 248.7282,
        "meta_mean_anomaly": 169.0457,
        "meta_ephemeris_type": 0,
        "meta_classification_type": "U",
        "meta_norad_cat_id": 34481,
        "meta_element_set_no": 999,
        "meta_rev_at_epoch": 87300,
        "meta_bstar": 0.00096471525,
        "meta_mean_motion_dot": 2.661e-05,
        "meta_mean_motion_ddot": 0,
        "tle_line1": "1 34481U 93036UA  25336.34304115  .00002661  00000+0  96472-3 0  9996",
        "tle_line2": "2 34481  73.9803  72.5025 0070976 248.7282 169.0457 14.32481954873006"
      },
      "geometry": {
        "type": "Point",
        "coordinates": [
          76.91725622934156,
          21.34927865007527
        ]
      }
    },
    {
      "type": "Feature",
      "properties": {
        "norad_id": 34482,
        "name": "COSMOS 2251 DEB",
        "group": "cosmos-2251-debris",
        "lat": 50.69735462997853,
        "lon": -97.96646206720678,
        "alt_km": 670.9795289523408,
        "timestamp": "2025-12-03T10:52:57.850746+00:00",
        "meta_object_name": "COSMOS 2251 DEB",
        "meta_object_id": "1993-036UB",
        "meta_epoch": "2025-12-03T04:47:42.160992",
        "meta_mean_motion": 14.68816931,
        "meta_eccentricity": 0.0045813,
        "meta_inclination": 74.0378,
        "meta_ra_of_asc_node": 242.0575,
        "meta_arg_of_pericenter": 303.72,
        "meta_mean_anomaly": 208.7465,
        "meta_ephemeris_type": 0,
        "meta_classification_type": "U",
        "meta_norad_cat_id": 34482,
        "meta_element_set_no": 999,
        "meta_rev_at_epoch": 88047,
        "meta_bstar": 0.0031222,
        "meta_mean_motion_dot": 0.00018541,
        "meta_mean_motion_ddot": 0,
        "tle_line1": "1 34482U 93036UB  25337.19979353  .00018541  00000+0  31222-2 0  9998",
        "tle_line2": "2 34482  74.0378 242.0575 0045813 303.7200 208.7465 14.68816931880479"
      },
      "geometry": {
        "type": "Point",
        "coordinates": [
          -97.96646206720678,
          50.69735462997853
        ]
      }
    },
    {
      "type": "Feature",
      "properties": {
        "norad_id": 34544,
        "name": "COSMOS 2251 DEB",
        "group": "cosmos-2251-debris",
        "lat": 24.804391076981716,
        "lon": 31.40162297173448,
        "alt_km": 1068.94694167515,
        "timestamp": "2025-12-03T10:52:57.850757+00:00",
        "meta_object_name": "COSMOS 2251 DEB",
        "meta_object_id": "1993-036UE",
        "meta_epoch": "2025-12-02T02:58:13.056672",
        "meta_mean_motion": 13.54654027,
        "meta_eccentricity": 0.03847802,
        "meta_inclination": 73.9153,
        "meta_ra_of_asc_node": 221.2162,
        "meta_arg_of_pericenter": 251.6007,
        "meta_mean_anomaly": 264.6648,
        "meta_ephemeris_type": 0,
        "meta_classification_type": "U",
        "meta_norad_cat_id": 34544,
        "meta_element_set_no": 999,
        "meta_rev_at_epoch": 82738,
        "meta_bstar": 0.00020621286,
        "meta_mean_motion_dot": 2.02e-06,
        "meta_mean_motion_ddot": 0,
        "tle_line1": "1 34544U 93036UE  25336.12376223  .00000202  00000+0  20621-3 0  9993",
        "tle_line2": "2 34544  73.9153 221.2162 0384780 251.6007 264.6648 13.54654027827388"
      },
      "geometry": {
        "type": "Point",
        "coordinates": [
          31.40162297173448,
          24.804391076981716
        ]
      }
    },
    {
      "type": "Feature",
      "properties": {
        "norad_id": 34546,
        "name": "COSMOS 2251 DEB",
        "group": "cosmos-2251-debris",
        "lat": -40.40269157784856,
        "lon": -107.60663466549015,
        "alt_km": 732.9342501003657,
        "timestamp": "2025-12-03T10:52:57.850768+00:00",
        "meta_object_name": "COSMOS 2251 DEB",
        "meta_object_id": "1993-036UG",
        "meta_epoch": "2025-12-02T22:18:50.158944",
        "meta_mean_motion": 14.45333108,
        "meta_eccentricity": 0.0021682,
        "meta_inclination": 74.0314,
        "meta_ra_of_asc_node": 267.4753,
        "meta_arg_of_pericenter": 342.3195,
        "meta_mean_anomaly": 131.664,
        "meta_ephemeris_type": 0,
        "meta_classification_type": "U",
        "meta_norad_cat_id": 34546,
        "meta_element_set_no": 999,
        "meta_rev_at_epoch": 87884,
        "meta_bstar": 0.00096926,
        "meta_mean_motion_dot": 3.39e-05,
        "meta_mean_motion_ddot": 0,
        "tle_line1": "1 34546U 93036UG  25336.92974721  .00003390  00000+0  96926-3 0  9992",
        "tle_line2": "2 34546  74.0314 267.4753 0021682 342.3195 131.6640 14.45333108878841"
      },
      "geometry": {
        "type": "Point",
        "coordinates": [
          -107.60663466549015,
          -40.40269157784856
        ]
      }
    },
    {
      "type": "Feature",
      "properties": {
        "norad_id": 34547,
        "name": "COSMOS 2251 DEB",
        "group": "cosmos-2251-debris",
        "lat": -26.720188240469966,
        "lon": 110.5078679950333,
        "alt_km": 669.4174962970537,
        "timestamp": "2025-12-03T10:52:57.850779+00:00",
        "meta_object_name": "COSMOS 2251 DEB",
        "meta_object_id": "1993-036UH",
        "meta_epoch": "2025-12-02T10:32:28.829184",
        "meta_mean_motion": 14.71896843,
        "meta_eccentricity": 0.00189154,
        "meta_inclination": 74.0295,
        "meta_ra_of_asc_node": 120.7688,
        "meta_arg_of_pericenter": 201.1584,
        "meta_mean_anomaly": 158.8808,
        "meta_ephemeris_type": 0,
        "meta_classification_type": "U",
        "meta_norad_cat_id": 34547,
        "meta_element_set_no": 999,
        "meta_rev_at_epoch": 88370,
        "meta_bstar": 0.0023605263,
        "meta_mean_motion_dot": 0.00014826,
        "meta_mean_motion_ddot": 0,
        "tle_line1": "1 34547U 93036UH  25336.43922256  .00014826  00000+0  23605-2 0  9994",
        "tle_line2": "2 34547  74.0295 120.7688 0018915 201.1584 158.8808 14.71896843883704"
      },
      "geometry": {
        "type": "Point",
        "coordinates": [
          110.5078679950333,
          -26.720188240469966
        ]
      }
    },
    {
      "type": "Feature",
      "properties": {
        "norad_id": 34553,
        "name": "COSMOS 2251 DEB",
        "group": "cosmos-2251-debris",
        "lat": -6.825075090860457,
        "lon": -152.40910234171668,
        "alt_km": 698.685538830352,
        "timestamp": "2025-12-03T10:52:57.850789+00:00",
        "meta_object_name": "COSMOS 2251 DEB",
        "meta_object_id": "1993-036UP",
        "meta_epoch": "2025-12-02T18:59:26.680128",
        "meta_mean_motion": 14.57564279,
        "meta_eccentricity": 0.0019722,
        "meta_inclination": 74.0257,
        "meta_ra_of_asc_node": 210.8145,
        "meta_arg_of_pericenter": 288.9539,
        "meta_mean_anomaly": 190.7302,
        "meta_ephemeris_type": 0,
        "meta_classification_type": "U",
        "meta_norad_cat_id": 34553,
        "meta_element_set_no": 999,
        "meta_rev_at_epoch": 87951,
        "meta_bstar": 0.0015026,
        "meta_mean_motion_dot": 6.834e-05,
        "meta_mean_motion_ddot": 0,
        "tle_line1": "1 34553U 93036UP  25336.79128102  .00006834  00000+0  15026-2 0  9996",
        "tle_line2": "2 34553  74.0257 210.8145 0019722 288.9539 190.7302 14.57564279879515"
      },
      "geometry": {
        "type": "Point",
        "coordinates": [
          -152.40910234171668,
          -6.825075090860457
        ]
      }
    }
  ]
}